CCSDS_OMM_VERS = 2.0
CREATION_DATE  = 
ORIGINATOR     = 

OBJECT_NAME    = SL-14 R/B
OBJECT_ID      = 1991-042B
CENTER_NAME    = EARTH
REF_FRAME      = TEME
TIME_SYSTEM    = UTC
MEAN_ELEMENT_THEORY = SGP/SGP4

EPOCH          = 2025-12-24T01:25:38.667648
MEAN_MOTION    = 14.81748684
ECCENTRICITY   = .0018298
INCLINATION    = 82.4936
RA_OF_ASC_NODE = 291.1088
ARG_OF_PERICENTER = 126.3861
MEAN_ANOMALY   = 233.9045

EPHEMERIS_TYPE = 0
CLASSIFICATION_TYPE = U
NORAD_CAT_ID   = 21423
ELEMENT_SET_NO = 999
REV_AT_EPOCH   = 84187
BSTAR          = .53869E-4
MEAN_MOTION_DOT = .449E-5
MEAN_MOTION_DDOT = 0

CCSDS_OMM_VERS = 2.0
CREATION_DATE  = 
ORIGINATOR     = 

OBJECT_NAME    = ERS-1
OBJECT_ID      = 1991-050A
CENTER_NAME    = EARTH
REF_FRAME      = TEME
TIME_SYSTEM    = UTC
MEAN_ELEMENT_THEORY = SGP/SGP4

EPOCH          = 2025-12-23T23:57:32.370048
MEAN_MOTION    = 14.39372988
ECCENTRICITY   = .003294
INCLINATION    = 98.7901
RA_OF_ASC_NODE = 9.3344
ARG_OF_PERICENTER = 67.6566
MEAN_ANOMALY   = 292.8107

EPHEMERIS_TYPE = 0
CLASSIFICATION_TYPE = U
NORAD_CAT_ID   = 21574
ELEMENT_SET_NO = 999
REV_AT_EPOCH   = 80484
BSTAR          = .11138E-3
MEAN_MOTION_DOT = .302E-5
MEAN_MOTION_DDOT = 0

CCSDS_OMM_VERS = 2.0
CREATION_DATE  = 
ORIGINATOR     = 

OBJECT_NAME    = ARIANE 40 R/B
OBJECT_ID      = 1991-050F
CENTER_NAME    = EARTH
REF_FRAME      = TEME
TIME_SYSTEM    = UTC
MEAN_ELEMENT_THEORY = SGP/SGP4

EPOCH          = 2025-12-24T02:10:12.091008
MEAN_MOTION    = 14.42822066
ECCENTRICITY   = .0002147
INCLINATION    = 98.2149
RA_OF_ASC_NODE = 48.1106
ARG_OF_PERICENTER = 318.8488
MEAN_ANOMALY   = 41.2540

EPHEMERIS_TYPE = 0
CLASSIFICATION_TYPE = U
NORAD_CAT_ID   = 21610
ELEMENT_SET_NO = 999
REV_AT_EPOCH   = 80809
BSTAR          = .10707E-3
MEAN_MOTION_DOT = .315E-5
MEAN_MOTION_DDOT = 0

CCSDS_OMM_VERS = 2.0
CREATION_DATE  = 
ORIGINATOR     = 

OBJECT_NAME    = INTERCOSMOS 25
OBJECT_ID      = 1991-086A
CENTER_NAME    = EARTH
REF_FRAME      = TEME
TIME_SYSTEM    = UTC
MEAN_ELEMENT_THEORY = SGP/SGP4

EPOCH          = 2025-12-24T00:41:25.848096
MEAN_MOTION    = 12.11771844
ECCENTRICITY   = .1486345
INCLINATION    = 82.6079
RA_OF_ASC_NODE = 355.7465
ARG_OF_PERICENTER = 280.0535
MEAN_ANOMALY   = 63.6581

EPHEMERIS_TYPE = 0
CLASSIFICATION_TYPE = U
NORAD_CAT_ID   = 21819
ELEMENT_SET_NO = 999
REV_AT_EPOCH   = 48752
BSTAR          = .41424E-3
MEAN_MOTION_DOT = .208E-4
MEAN_MOTION_DDOT = 0

CCSDS_OMM_VERS = 2.0
CREATION_DATE  = 
ORIGINATOR     = 

OBJECT_NAME    = SL-8 R/B
OBJECT_ID      = 1992-008B
CENTER_NAME    = EARTH
REF_FRAME      = TEME
TIME_SYSTEM    = UTC
MEAN_ELEMENT_THEORY = SGP/SGP4

EPOCH          = 2025-12-24T03:48:08.815968
MEAN_MOTION    = 13.75961452
ECCENTRICITY   = .0034461
INCLINATION    = 82.9272
RA_OF_ASC_NODE = 323.9527
ARG_OF_PERICENTER = 348.0614
MEAN_ANOMALY   = 22.2173

EPHEMERIS_TYPE = 0
CLASSIFICATION_TYPE = U
NORAD_CAT_ID   = 21876
ELEMENT_SET_NO = 999
REV_AT_EPOCH   = 69903
BSTAR          = .10842E-3
MEAN_MOTION_DOT = .121E-5
MEAN_MOTION_DDOT = 0

CCSDS_OMM_VERS = 2.0
CREATION_DATE  = 
ORIGINATOR     = 

OBJECT_NAME    = SL-8 R/B
OBJECT_ID      = 1992-020B
CENTER_NAME    = EARTH
REF_FRAME      = TEME
TIME_SYSTEM    = UTC
MEAN_ELEMENT_THEORY = SGP/SGP4

EPOCH          = 2025-12-24T03:02:02.693184
MEAN_MOTION    = 13.75530034
ECCENTRICITY   = .0029621
INCLINATION    = 82.9294
RA_OF_ASC_NODE = 209.8619
ARG_OF_PERICENTER = 146.6717
MEAN_ANOMALY   = 327.3050

EPHEMERIS_TYPE = 0
CLASSIFICATION_TYPE = U
NORAD_CAT_ID   = 21938
ELEMENT_SET_NO = 999
REV_AT_EPOCH   = 69074
BSTAR          = .12803E-3
MEAN_MOTION_DOT = .139E-5
MEAN_MOTION_DDOT = 0

CCSDS_OMM_VERS = 2.0
CREATION_DATE  = 
ORIGINATOR     = 

OBJECT_NAME    = USA 81
OBJECT_ID      = 1992-023A
CENTER_NAME    = EARTH
REF_FRAME      = TEME
TIME_SYSTEM    = UTC
MEAN_ELEMENT_THEORY = SGP/SGP4

EPOCH          = 2025-12-24T00:02:52.247904
MEAN_MOTION    = 14.32330890
ECCENTRICITY   = .0001095
INCLINATION    = 85.0079
RA_OF_ASC_NODE = 175.0806
ARG_OF_PERICENTER = 85.4779
MEAN_ANOMALY   = 274.6539

EPHEMERIS_TYPE = 0
CLASSIFICATION_TYPE = U
NORAD_CAT_ID   = 21949
ELEMENT_SET_NO = 999
REV_AT_EPOCH   = 8395
BSTAR          = .63559E-4
MEAN_MOTION_DOT = .191E-5
MEAN_MOTION_DDOT = 0

CCSDS_OMM_VERS = 2.0
CREATION_DATE  = 
ORIGINATOR     = 

OBJECT_NAME    = COSMOS 2219
OBJECT_ID      = 1992-076A
CENTER_NAME    = EARTH
REF_FRAME      = TEME
TIME_SYSTEM    = UTC
MEAN_ELEMENT_THEORY = SGP/SGP4

EPOCH          = 2025-12-23T21:38:04.053120
MEAN_MOTION    = 14.14066842
ECCENTRICITY   = .0019303
INCLINATION    = 71.0578
RA_OF_ASC_NODE = 176.4993
ARG_OF_PERICENTER = 311.6192
MEAN_ANOMALY   = 48.3276

EPHEMERIS_TYPE = 0
CLASSIFICATION_TYPE = U
NORAD_CAT_ID   = 22219
ELEMENT_SET_NO = 999
REV_AT_EPOCH   = 70766
BSTAR          = .18349E-3
MEAN_MOTION_DOT = .303E-5
MEAN_MOTION_DDOT = 0

CCSDS_OMM_VERS = 2.0
CREATION_DATE  = 
ORIGINATOR     = 

OBJECT_NAME    = SL-16 R/B
OBJECT_ID      = 1992-076B
CENTER_NAME    = EARTH
REF_FRAME      = TEME
TIME_SYSTEM    = UTC
MEAN_ELEMENT_THEORY = SGP/SGP4

EPOCH          = 2025-12-24T03:46:18.672384
MEAN_MOTION    = 14.16845143
ECCENTRICITY   = .0014216
INCLINATION    = 71.0010
RA_OF_ASC_NODE = 347.4808
ARG_OF_PERICENTER = 218.8406
MEAN_ANOMALY   = 215.9785

EPHEMERIS_TYPE = 0
CLASSIFICATION_TYPE = U
NORAD_CAT_ID   = 22220
ELEMENT_SET_NO = 999
REV_AT_EPOCH   = 71113
BSTAR          = .75946E-4
MEAN_MOTION_DOT = .104E-5
MEAN_MOTION_DDOT = 0

CCSDS_OMM_VERS = 2.0
CREATION_DATE  = 
ORIGINATOR     = 

OBJECT_NAME    = COSMOS 2221
OBJECT_ID      = 1992-080A
CENTER_NAME    = EARTH
REF_FRAME      = TEME
TIME_SYSTEM    = UTC
MEAN_ELEMENT_THEORY = SGP/SGP4

EPOCH          = 2025-12-24T01:21:17.895168
MEAN_MOTION    = 14.95802456
ECCENTRICITY   = .0016301
INCLINATION    = 82.5038
RA_OF_ASC_NODE = 351.4926
ARG_OF_PERICENTER = 87.1455
MEAN_ANOMALY   = 273.1632

EPHEMERIS_TYPE = 0
CLASSIFICATION_TYPE = U
NORAD_CAT_ID   = 22236
ELEMENT_SET_NO = 999
REV_AT_EPOCH   = 76948
BSTAR          = .17275E-3
MEAN_MOTION_DOT = .1958E-4
MEAN_MOTION_DDOT = 0

CCSDS_OMM_VERS = 2.0
CREATION_DATE  = 
ORIGINATOR     = 

OBJECT_NAME    = SL-16 R/B
OBJECT_ID      = 1992-093B
CENTER_NAME    = EARTH
REF_FRAME      = TEME
TIME_SYSTEM    = UTC
MEAN_ELEMENT_THEORY = SGP/SGP4

EPOCH          = 2025-12-23T21:50:32.019648
MEAN_MOTION    = 14.15435319
ECCENTRICITY   = .0002492
INCLINATION    = 71.0207
RA_OF_ASC_NODE = 163.3469
ARG_OF_PERICENTER = 35.2791
MEAN_ANOMALY   = 324.8497

EPHEMERIS_TYPE = 0
CLASSIFICATION_TYPE = U
NORAD_CAT_ID   = 22285
ELEMENT_SET_NO = 999
REV_AT_EPOCH   = 70243
BSTAR          = .11143E-4
MEAN_MOTION_DOT = -.26E-6
MEAN_MOTION_DDOT = 0

CCSDS_OMM_VERS = 2.0
CREATION_DATE  = 
ORIGINATOR     = 

OBJECT_NAME    = COSMOS 2228
OBJECT_ID      = 1992-094A
CENTER_NAME    = EARTH
REF_FRAME      = TEME
TIME_SYSTEM    = UTC
MEAN_ELEMENT_THEORY = SGP/SGP4

EPOCH          = 2025-12-24T02:55:56.428032
MEAN_MOTION    = 14.96779309
ECCENTRICITY   = .0017452
INCLINATION    = 82.5191
RA_OF_ASC_NODE = 309.6430
ARG_OF_PERICENTER = 190.7749
MEAN_ANOMALY   = 169.3102

EPHEMERIS_TYPE = 0
CLASSIFICATION_TYPE = U
NORAD_CAT_ID   = 22286
ELEMENT_SET_NO = 999
REV_AT_EPOCH   = 76475
BSTAR          = .1957E-3
MEAN_MOTION_DOT = .2271E-4
MEAN_MOTION_DDOT = 0

