SL-14 R/B               
1 21423U 91042B   25358.05947532  .00000449  00000+0  53869-4 0  9997
2 21423  82.4936 291.1088 0018298 126.3861 233.9045 14.81748684841875
ERS-1                   
1 21574U 91050A   25357.99829132  .00000302  00000+0  11138-3 0  9990
2 21574  98.7901   9.3344 0032940  67.6566 292.8107 14.39372988804849
ARIANE 40 R/B           
1 21610U 91050F   25358.09041772  .00000315  00000+0  10707-3 0  9994
2 21610  98.2149  48.1106 0002147 318.8488  41.2540 14.42822066808095
INTERCOSMOS 25          
1 21819U 91086A   25358.02877139  .00002080  00000+0  41424-3 0  9992
2 21819  82.6079 355.7465 1486345 280.0535  63.6581 12.11771844487525
SL-8 R/B                
1 21876U 92008B   25358.15843537  .00000121  00000+0  10842-3 0  9993
2 21876  82.9272 323.9527 0034461 348.0614  22.2173 13.75961452699038
SL-8 R/B                
1 21938U 92020B   25358.12642006  .00000139  00000+0  12803-3 0  9999
2 21938  82.9294 209.8619 0029621 146.6717 327.3050 13.75530034690743
USA 81                  
1 21949U 92023A   25358.00199361  .00000191  00000+0  63559-4 0  9995
2 21949  85.0079 175.0806 0001095  85.4779 274.6539 14.32330890 83952
COSMOS 2219             
1 22219U 92076A   25357.90143580  .00000303  00000+0  18349-3 0  9995
2 22219  71.0578 176.4993 0019303 311.6192  48.3276 14.14066842707666
SL-16 R/B               
1 22220U 92076B   25358.15716056  .00000104  00000+0  75946-4 0  9995
2 22220  71.0010 347.4808 0014216 218.8406 215.9785 14.16845143711133
COSMOS 2221             
1 22236U 92080A   25358.05645712  .00001958  00000+0  17275-3 0  9994
2 22236  82.5038 351.4926 0016301  87.1455 273.1632 14.95802456769486
SL-16 R/B               
1 22285U 92093B   25357.91009282 -.00000026  00000+0  11143-4 0  9997
2 22285  71.0207 163.3469 0002492  35.2791 324.8497 14.15435319702433
COSMOS 2228             
1 22286U 92094A   25358.12218088  .00002271  00000+0  19570-3 0  9993
2 22286  82.5191 309.6430 0017452 190.7749 169.3102 14.96779309764755
